ONEWEB-0208             
1 48243U 21031AK  24151.83554874 -.00000137  00000+0 -40424-3 0  9994
2 48243  87.8965  78.3972 0002127  73.8758 286.2605 13.14501610150122
ONEWEB-0200             
1 48244U 21031AL  24151.87520163  .00000162  00000+0  40232-3 0  9996
2 48244  87.8968  78.3870 0002196  75.2318 284.9055 13.14501854150053
ONEWEB-0217             
1 48245U 21031AM  24151.81492689 -.00000084  00000+0 -26099-3 0  9992
2 48245  87.8967  78.3831 0002315  74.8319 285.3066 13.14500663149994
ONEWEB-0211             
1 48767U 21045A   24151.75572226 -.00000040  00000+0 -14018-3 0  9995
2 48767  87.9050  47.9183 0001977  81.2594 278.8760 13.15547543147275
ONEWEB-0223             
1 48768U 21045B   24151.77791682  .00000152  00000+0  36863-3 0  9991
2 48768  87.9055  47.9210 0002511  91.2283 268.9135 13.15549305146131
ONEWEB-0230             
1 48769U 21045C   24152.12965058 -.00000037  00000+0 -13225-3 0  9993
2 48769  87.9053  47.9220 0001858  83.3603 276.7739 13.15546200147557
ONEWEB-0237             
1 48770U 21045D   24151.73827372 -.00000003  00000+0 -42485-4 0  9991
2 48770  87.9058  47.9294 0002237  84.5815 275.5570 13.15545750146115
ONEWEB-0235             
1 48771U 21045E   24152.16927675  .00000104  00000+0  24124-3 0  9996
2 48771  87.9052  47.8554 0002485  93.9249 266.2166 13.15547795147286
ONEWEB-0242             
1 48772U 21045F   24152.16293820  .00000097  00000+0  22262-3 0  9997
2 48772  87.9052  47.8453 0001968  87.5438 272.5918 13.15547901147339
ONEWEB-0241             
1 48773U 21045G   24152.22632120  .00000900  00000+0  23571-2 0  9991
2 48773  87.9059  47.8782 0002337  80.8672 279.2722 13.15543038147254
ONEWEB-0243             
1 48774U 21045H   24151.80166709 -.00000107  00000+0 -31757-3 0  9997
2 48774  87.9064  47.9214 0002309  85.7894 274.3500 13.15547773146092
ONEWEB-0222             
1 48775U 21045J   24151.78502475  .00000162  00000+0  39723-3 0  9999
2 48775  87.9053  47.9302 0002174  81.2351 278.9025 13.15546656146134
ONEWEB-0244             
1 48776U 21045K   24151.65905733 -.00000178  00000+0 -50586-3 0  9999
2 48776  87.9050  47.9382 0001896  88.3025 271.8323 13.15547273146685
ONEWEB-0247             
1 48777U 21045L   24152.18828846 -.00000028  00000+0 -10815-3 0  9993
2 48777  87.9057  47.8721 0002715 100.3227 259.8210 13.15547212147325
ONEWEB-0245             
1 48778U 21045M   24151.72718349 -.00000038  00000+0 -13604-3 0  9999
2 48778  87.9052  47.9550 0002116  77.7782 282.3585 13.15546479146105
ONEWEB-0229             
1 48779U 21045N   24151.72243778 -.00000053  00000+0 -17437-3 0  9994
2 48779  87.9055  47.9496 0001947  85.5004 274.6349 13.15547245146130
ONEWEB-0228             
1 48780U 21045P   24151.73748727 -.00000329  00000+0 -90856-3 0  9993
2 48780  87.9049  47.9218 0001924  83.6589 276.4760 13.15547823146059
ONEWEB-0232             
1 48781U 21045Q   24152.18669653  .00000030  00000+0  46757-4 0  9993
2 48781  87.9044  47.8546 0001971  84.3065 275.8290 13.15547270147550
ONEWEB-0231             
1 48782U 21045R   24152.16452402 -.00000323  00000+0 -89104-3 0  9993
2 48782  87.9059  47.8866 0002417  92.5478 267.5929 13.15549372147267
ONEWEB-0234             
1 48783U 21045S   24151.72798024 -.00000052  00000+0 -17345-3 0  9995
2 48783  87.9054  47.9335 0002204  43.7692 316.3613 13.15546803146207
ONEWEB-0238             
1 48784U 21045T   24152.21442555 -.00000176  00000+0 -50212-3 0  9993
2 48784  87.9049  47.8550 0001828  76.1733 283.9600 13.15547827147299
ONEWEB-0240             
1 48785U 21045U   24152.22393495  .00000111  00000+0  26041-3 0  9993
2 48785  87.9049  47.8206 0002329  80.2561 279.8832 13.15546837147314
ONEWEB-0246             
1 48786U 21045V   24151.76204659 -.00000136  00000+0 -39413-3 0  9991
2 48786  87.9051  47.9166 0001895  85.7168 274.4179 13.15547596146007
ONEWEB-0210             
1 48787U 21045W   24151.73669761 -.00000185  00000+0 -52633-3 0  9991
2 48787  87.9051  47.9269 0002363 101.8965 258.2430 13.15547012146045
ONEWEB-0214             
1 48788U 21045X   24151.74619461 -.00000008  00000+0 -56296-4 0  9999
2 48788  87.9051  47.9137 0001989  99.5640 260.5715 13.15545814146013
ONEWEB-0221             
1 48789U 21045Y   24151.75254411  .00000013  00000+0 -73319-7 0  9994
2 48789  87.9052  47.9301 0002176  82.1343 278.0034 13.15546977146104
ONEWEB-0213             
1 48790U 21045Z   24151.74144251 -.00000056  00000+0 -18159-3 0  9990
2 48790  87.9051  47.9461 0002236  85.8514 274.2872 13.15545974146169
ONEWEB-0212             
1 48791U 21045AA  24151.71847415  .00000059  00000+0  12287-3 0  9997
2 48791  87.9056  47.9332 0001888  77.3938 282.7403 13.15546841146157
ONEWEB-0227             
1 48792U 21045AB  24151.71767960  .00000016  00000+0  81473-5 0  9992
2 48792  87.9051  47.9498 0002050  84.5223 275.6141 13.15546784146106
ONEWEB-0226             
1 48793U 21045AC  24152.16768785  .00000235  00000+0  58900-3 0  9999
2 48793  87.9053  47.8664 0002220  94.0891 266.0493 13.15546957147252
ONEWEB-0224             
1 48794U 21045AD  24151.75095071 -.00000063  00000+0 -20009-3 0  9995
2 48794  87.9056  47.9694 0002894  67.3138 292.8298 13.15545378146002
ONEWEB-0233             
1 48795U 21045AE  24151.74698890 -.00000021  00000+0 -90929-4 0  9996
2 48795  87.9054  47.9814 0001945  86.6434 273.4919 13.15546329146028
ONEWEB-0190             
1 48796U 21045AF  24151.74304075 -.00000177  00000+0 -50507-3 0  9995
2 48796  87.9056  47.9456 0002766  94.0700 266.0746 13.15547780146099
ONEWEB-0236             
1 48797U 21045AG  24152.21681367  .00000249  00000+0  62688-3 0  9992
2 48797  87.9060  47.8447 0002277  85.6041 274.5349 13.15546391147164
ONEWEB-0248             
1 48798U 21045AH  24151.69708951  .00000015  00000+0  54708-5 0  9990
2 48798  87.9051  47.9402 0002675  78.1758 281.9673 13.15547142146134
ONEWEB-0225             
1 48799U 21045AJ  24152.17561454  .00000059  00000+0  12293-3 0  9999
2 48799  87.9055  47.8563 0002336  89.1211 271.0187 13.15547686147343
ONEWEB-0215             
1 48800U 21045AK  24151.76521885 -.00000031  00000+0 -11748-3 0  9996
2 48800  87.9050  47.9128 0002794  86.0706 274.0743 13.15546671146020
ONEWEB-0216             
1 48801U 21045AL  24152.15500699  .00000221  00000+0  55418-3 0  9992
2 48801  87.9053  47.8758 0001856  91.2286 268.9057 13.15546708147203
ONEWEB-0239             
1 48802U 21045AM  24152.15977368  .00000083  00000+0  18701-3 0  9994
2 48802  87.9062  47.8491 0002846  80.3754 279.7698 13.15547977147263
ONEWEB-0249             
1 48967U 21060A   24151.62199997  .00000035  00000+0  57764-4 0  9998
2 48967  87.9123  17.5923 0001796  82.3001 277.8334 13.16592157141246
ONEWEB-0250             
1 48968U 21060B   24151.70269457  .00000030  00000+0  45719-4 0  9999
2 48968  87.9122  17.5595 0002139  81.4119 278.7254 13.16598768141237
ONEWEB-0252             
1 48970U 21060D   24151.65366060 -.00000050  00000+0 -16499-3 0  9990
2 48970  87.9123  17.5788 0001813  89.8338 270.3000 13.16592307141294
ONEWEB-0253             
1 48971U 21060E   24151.71857544  .00000002  00000+0 -29182-4 0  9990
2 48971  87.9121  17.5785 0002091  87.0244 273.1126 13.16591972141236
ONEWEB-0254             
1 48972U 21060F   24151.65208180 -.00000195  00000+0 -54468-3 0  9998
2 48972  87.9122  17.5692 0002114  88.9134 271.2239 13.16593705141228
ONEWEB-0255             
1 48973U 21060G   24152.14606362 -.00000036  00000+0 -12843-3 0  9993
2 48973  87.9119  17.5060 0001830  83.8283 276.3057 13.16594357142653
ONEWEB-0256             
1 48974U 21060H   24151.64020315 -.00000042  00000+0 -14270-3 0  9999
2 48974  87.9125  17.6087 0001656  86.1720 273.9600 13.16592009141264
ONEWEB-0257             
1 48975U 21060J   24151.67265868 -.00000024  00000+0 -95098-4 0  9995
2 48975  87.9121  17.5736 0001830  89.4620 270.6721 13.16592016141222
ONEWEB-0258             
1 48976U 21060K   24152.13022218  .00000038  00000+0  65707-4 0  9995
2 48976  87.9119  17.5114 0001861  82.0096 278.1246 13.16592233142575
ONEWEB-0259             
1 48977U 21060L   24151.66790869 -.00000090  00000+0 -26847-3 0  9998
2 48977  87.9122  17.5877 0002052  80.4666 279.6697 13.16591666141264
ONEWEB-0260             
1 48978U 21060M   24152.11517978 -.00000015  00000+0 -71800-4 0  9995
2 48978  87.9120  17.5273 0001673 105.1868 254.9448 13.16592200142581
ONEWEB-0261             
1 48979U 21060N   24151.62832855  .00000082  00000+0  18161-3 0  9997
2 48979  87.9127  17.6174 0002292  94.4416 265.6977 13.16592378141296
ONEWEB-0262             
1 48980U 21060P   24152.14131451  .00000159  00000+0  38210-3 0  9993
2 48980  87.9121  17.4801 0002319  82.3460 277.7934 13.16593392142624
ONEWEB-0263             
1 48981U 21060Q   24151.64099976 -.00000196  00000+0 -54744-3 0  9996
2 48981  87.9126  17.5957 0002305  89.0466 271.0929 13.16594080141229
ONEWEB-0264             
1 48982U 21060R   24152.13418197 -.00000018  00000+0 -79944-4 0  9995
2 48982  87.9125  17.5091 0001934  91.4425 268.6928 13.16591739142586
ONEWEB-0266             
1 48984U 21060T   24151.69958496 -.00000033  00000+0 -11879-3 0  9997
2 48984  87.9121  17.5734 0001809  79.7469 280.3866 13.16593364141224
ONEWEB-0267             
1 48985U 21060U   24151.63466310  .00000008  00000+0 -13517-4 0  9994
2 48985  87.9122  17.5878 0002061  92.2345 267.9022 13.16592387141228
ONEWEB-0268             
1 48986U 21060V   24152.13497694 -.00000132  00000+0 -37808-3 0  9997
2 48986  87.9121  17.4946 0001861 106.9986 253.1349 13.16593770142849
ONEWEB-0269             
1 48987U 21060W   24151.65999396 -.00000051  00000+0 -16691-3 0  9997
2 48987  87.9125  17.6138 0001709  84.4020 275.7306 13.16591546142560
ONEWEB-0270             
1 48988U 21060X   24151.67741709 -.00000144  00000+0 -41127-3 0  9998
2 48988  87.9119  17.5936 0002365  87.5805 272.5597 13.16592474141302
